[{"OBJECT_NAME":"MESON-1","OBJECT_ID":"2024-043AK","EPOCH":"2026-03-09T21:36:16.481664","MEAN_MOTION":15.29893494,"ECCENTRICITY":0.00095452,"INCLINATION":97.5469,"RA_OF_ASC_NODE":205.2839,"ARG_OF_PERICENTER":227.1432,"MEAN_ANOMALY":132.9007,"EPHEMERIS_TYPE":0,"CLASSIFICATION_TYPE":"U","NORAD_CAT_ID":59131,"ELEMENT_SET_NO":999,"REV_AT_EPOCH":11189,"BSTAR":0.0002974823,"MEAN_MOTION_DOT":8.544e-5,"MEAN_MOTION_DDOT":0},{"OBJECT_NAME":"STARLINK-33784","OBJECT_ID":"2025-069W","EPOCH":"2026-03-09T10:41:36.140352","MEAN_MOTION":15.30217807,"ECCENTRICITY":7.921e-5,"INCLINATION":53.1582,"RA_OF_ASC_NODE":143.8705,"ARG_OF_PERICENTER":130.5046,"MEAN_ANOMALY":229.6024,"EPHEMERIS_TYPE":0,"CLASSIFICATION_TYPE":"U","NORAD_CAT_ID":63453,"ELEMENT_SET_NO":999,"REV_AT_EPOCH":5336,"BSTAR":0.0011463826,"MEAN_MOTION_DOT":0.00033766,"MEAN_MOTION_DDOT":0}]
